2023-091J               
1 57174U 23091J   26131.89881815  .00002225  00000+0  12719-3 0  9993
2 57174  97.5083 185.5141 0011636 273.1710  86.8190 15.13679629158141
CUBEBEL 2 (EU11S)       
1 57175U 23091K   26131.92027806  .00007225  00000+0  26463-3 0  9996
2 57175  97.5074 194.8349 0008846 236.6050 123.4344 15.28293308158764
SITRO-AIS 5 (KATYS)     
1 57176U 23091L   26131.94473324  .00006904  00000+0  25046-3 0  9998
2 57176  97.5083 195.5203 0010638 223.6599 136.3800 15.28610494158802
ZORKIY-2M 1             
1 57177U 23091M   26131.88830461  .00003859  00000+0  17993-3 0  9999
2 57177  97.5116 190.9780 0012116 238.9064 121.0982 15.20424257158486
CUBESX-HSE 3 (RS42S)    
1 57178U 23091N   26131.89292307  .00007563  00000+0  26045-3 0  9996
2 57178  97.5113 197.0453 0010310 213.0448 147.0149 15.30284729158878
MONITOR-3 (RS58S)       
1 57180U 23091Q   26131.90523389  .00006373  00000+0  24222-3 0  9991
2 57180  97.5106 195.1027 0010966 220.9364 139.1053 15.27100684158756
MONITOR-4 (RS57S)       
1 57182U 23091S   26131.88654665  .00006005  00000+0  22775-3 0  9995
2 57182  97.5100 195.0528 0010920 221.3921 138.6492 15.27197311158755
MONITOR-2 (RS39S)       
1 57184U 23091U   26131.94325722  .00002783  00000+0  13786-3 0  9994
2 57184  97.5099 190.4653 0010007 233.4524 126.5789 15.18567218158450
SVYATOBOR 1 (RS60S)     
1 57187U 23091X   26131.93524338  .00005307  00000+0  20921-3 0  9994
2 57187  97.5112 195.5662 0008837 210.8862 149.1858 15.25985039158784
HORS 1                  
1 57188U 23091Y   26131.92315855  .00005590  00000+0  21959-3 0  9992
2 57188  97.5091 195.3212 0008321 210.2684 149.8074 15.26079991158783
VIZARD-METEO (RS38S)    
1 57189U 23091Z   26131.91213388  .00010026  00000+0  29874-3 0  9994
2 57189  97.5110 200.7018 0007562 188.5499 171.5616 15.34859004159121
SITRO-AIS 6 (CHIRKIN)   
1 57192U 23091AC  26131.90753363  .00003575  00000+0  14500-3 0  9990
2 57192  97.5090 194.7896 0010802 227.5220 132.5105 15.25242688158757
SITRO-AIS 8 (ANOKHIN)   
1 57193U 23091AD  26131.89254815  .00007948  00000+0  26644-3 0  9997
2 57193  97.5078 196.9135 0009942 218.9790 141.0735 15.31142325158896
SITRO-AIS 7 (FARTUSHNIY)
1 57194U 23091AE  26131.90347305  .00003385  00000+0  13867-3 0  9991
2 57194  97.5088 194.6287 0010608 228.7710 131.2614 15.24948802158740
AVION KALUGA 650        
1 57195U 23091AF  26131.89240133  .00003327  00000+0  15777-3 0  9999
2 57195  97.5114 191.6223 0009236 230.8128 129.2287 15.19959503158512
HORS 2                  
1 57196U 23091AG  26131.89924896  .00007858  00000+0  26512-3 0  9997
2 57196  97.5109 198.4585 0007947 201.1926 158.8986 15.30956320158978
A-SEANSAT-PG1           
1 57197U 23091AH  26131.92659793  .00011363  00000+0  32944-3 0  9995
2 57197  97.5099 200.7688 0007357 196.6731 163.4272 15.35687454159149
SITRO-AIS 10 (BURDAEV)  
1 57199U 23091AK  26131.94182110  .00011929  00000+0  32910-3 0  9994
2 57199  97.5099 201.6560 0006947 189.5194 170.5920 15.37228456159197
SITRO-AIS 9 (SHCHUKIN)  
1 57201U 23091AM  26131.89210557  .00011948  00000+0  33447-3 0  9996
2 57201  97.5097 201.3624 0007144 190.5520 169.5576 15.36773804159176
UTMN 2 (RS27S)          
1 57203U 23091AP  26131.93070794  .00008005  00000+0  26845-3 0  9994
2 57203  97.5108 198.6727 0007976 196.5687 163.5294 15.31147248158998
SITRO-AIS 12 (SMIRENNIY)
1 57204U 23091AQ  26131.88950228  .00012216  00000+0  33880-3 0  9994
2 57204  97.5109 201.8045 0006963 184.4019 175.7165 15.37058074159199
SITRO-AIS 11 (SHEFFER)  
1 57208U 23091AU  26131.91253613  .00011681  00000+0  32004-3 0  9998
2 57208  97.5107 202.0527 0006873 184.0415 176.0775 15.37449640159212
H2SAT (HEINRICH HERTZ)  
1 57213U 23093A   26131.89488644  .00000014  00000+0  00000+0 0  9992
2 57213   0.0135 234.0450 0000838 249.2862  69.2158  1.00271177 10557
KUZGTU 1 (RS47S)        
1 57217U 23091AV  26131.91842666  .00007426  00000+0  26590-3 0  9995
2 57217  97.5086 196.0502 0010356 217.0076 143.0450 15.29016771158831
QIANKUN-1               
1 57422U 23103B   26131.63413186  .00064234  34820-5  76765-4 0  9990
2 57422  96.1629 179.0024 0028323 122.1157 238.2883 16.07604660161429
FENGYUN 3F              
1 57490U 23111A   26131.96636845  .00000004  00000+0  22166-4 0  9997
2 57490  98.6860 202.6471 0001205 115.2656 244.8646 14.19932514143720
HJ-2F                   
1 57519U 23116A   26131.96213203  .00004784  00000+0  21359-3 0  9994
2 57519  97.3859 137.8268 0009452 157.2912 202.8744 15.21800760153244
XRISM                   
1 57800U 23137A   26131.69141388  .00002631  00000+0  14329-3 0  9992
2 57800  31.0020 235.9473 0007670 315.6174  44.3850 15.12155544147333
METEOR-M2 4             
1 59051U 24039A   26131.95724017 -.00000004  00000+0  17796-4 0  9994
2 59051  98.6990  91.7157 0005923 276.6883  83.3620 14.22425734114116
