OBJECT_NAME,OBJECT_ID,EPOCH,MEAN_MOTION,ECCENTRICITY,INCLINATION,RA_OF_ASC_NODE,ARG_OF_PERICENTER,MEAN_ANOMALY,EPHEMERIS_TYPE,CLASSIFICATION_TYPE,NORAD_CAT_ID,ELEMENT_SET_NO,REV_AT_EPOCH,BSTAR,MEAN_MOTION_DOT,MEAN_MOTION_DDOT
2023-091J,2023-091J,2026-05-11T21:34:17.888160,15.13679629,.00116361,97.5083,185.5141,273.1710,86.8190,0,U,57174,999,15814,.12718542E-3,.2225E-4,0
CUBEBEL 2 (EU11S),2023-091K,2026-05-11T22:05:12.024384,15.28293308,.00088468,97.5074,194.8349,236.6050,123.4344,0,U,57175,999,15876,.26463319E-3,.7225E-4,0
SITRO-AIS 5 (KATYS),2023-091L,2026-05-11T22:40:24.951936,15.28610494,.00106385,97.5083,195.5203,223.6599,136.3800,0,U,57176,999,15880,.25046366E-3,.6904E-4,0
ZORKIY-2M 1,2023-091M,2026-05-11T21:19:09.518304,15.20424257,.00121162,97.5116,190.9780,238.9064,121.0982,0,U,57177,999,15848,.17992801E-3,.3859E-4,0
CUBESX-HSE 3 (RS42S),2023-091N,2026-05-11T21:25:48.553248,15.30284729,.00103104,97.5113,197.0453,213.0448,147.0149,0,U,57178,999,15887,.26044761E-3,.7563E-4,0
MONITOR-3 (RS58S),2023-091Q,2026-05-11T21:43:32.208096,15.27100684,.00109665,97.5106,195.1027,220.9364,139.1053,0,U,57180,999,15875,.24222135E-3,.6373E-4,0
MONITOR-4 (RS57S),2023-091S,2026-05-11T21:16:37.630560,15.27197311,.00109204,97.5100,195.0528,221.3921,138.6492,0,U,57182,999,15875,.2277483E-3,.6005E-4,0
MONITOR-2 (RS39S),2023-091U,2026-05-11T22:38:17.423808,15.18567218,.00100079,97.5099,190.4653,233.4524,126.5789,0,U,57184,999,15845,.13785703E-3,.2783E-4,0
SVYATOBOR 1 (RS60S),2023-091X,2026-05-11T22:26:45.028032,15.25985039,.00088371,97.5112,195.5662,210.8862,149.1858,0,U,57187,999,15878,.20921353E-3,.5307E-4,0
HORS 1,2023-091Y,2026-05-11T22:09:20.898720,15.26079991,.00083211,97.5091,195.3212,210.2684,149.8074,0,U,57188,999,15878,.21959499E-3,.559E-4,0
VIZARD-METEO (RS38S),2023-091Z,2026-05-11T21:53:28.367232,15.34859004,.00075628,97.5110,200.7018,188.5499,171.5616,0,U,57189,999,15912,.29873749E-3,.10026E-3,0
SITRO-AIS 6 (CHIRKIN),2023-091AC,2026-05-11T21:46:50.905632,15.25242688,.00108021,97.5090,194.7896,227.5220,132.5105,0,U,57192,999,15875,.14499968E-3,.3575E-4,0
SITRO-AIS 8 (ANOKHIN),2023-091AD,2026-05-11T21:25:16.160160,15.31142325,.00099426,97.5078,196.9135,218.9790,141.0735,0,U,57193,999,15889,.26643543E-3,.7948E-4,0
SITRO-AIS 7 (FARTUSHNIY),2023-091AE,2026-05-11T21:41:00.071520,15.24948802,.00106087,97.5088,194.6287,228.7710,131.2614,0,U,57194,999,15874,.13867353E-3,.3385E-4,0
AVION KALUGA 650,2023-091AF,2026-05-11T21:25:03.474912,15.19959503,.00092365,97.5114,191.6223,230.8128,129.2287,0,U,57195,999,15851,.15776794E-3,.3327E-4,0
HORS 2,2023-091AG,2026-05-11T21:34:55.110144,15.30956320,.0007947,97.5109,198.4585,201.1926,158.8986,0,U,57196,999,15897,.2651163E-3,.7858E-4,0
A-SEANSAT-PG1,2023-091AH,2026-05-11T22:14:18.061152,15.35687454,.0007357,97.5099,200.7688,196.6731,163.4272,0,U,57197,999,15914,.32943903E-3,.11363E-3,0
SITRO-AIS 10 (BURDAEV),2023-091AK,2026-05-11T22:36:13.343040,15.37228456,.00069475,97.5099,201.6560,189.5194,170.5920,0,U,57199,999,15919,.32910249E-3,.11929E-3,0
SITRO-AIS 9 (SHCHUKIN),2023-091AM,2026-05-11T21:24:37.921248,15.36773804,.00071445,97.5097,201.3624,190.5520,169.5576,0,U,57201,999,15917,.33446578E-3,.11948E-3,0
UTMN 2 (RS27S),2023-091AP,2026-05-11T22:20:13.166016,15.31147248,.00079762,97.5108,198.6727,196.5687,163.5294,0,U,57203,999,15899,.26844845E-3,.8005E-4,0
SITRO-AIS 12 (SMIRENNIY),2023-091AQ,2026-05-11T21:20:52.996992,15.37058074,.00069639,97.5109,201.8045,184.4019,175.7165,0,U,57204,999,15919,.33879998E-3,.12216E-3,0
SITRO-AIS 11 (SHEFFER),2023-091AU,2026-05-11T21:54:03.121632,15.37449640,.00068737,97.5107,202.0527,184.0415,176.0775,0,U,57208,999,15921,.3200363E-3,.11681E-3,0
H2SAT (HEINRICH HERTZ),2023-093A,2026-05-11T21:28:38.188416,1.00271177,.00008389,0.0135,234.0450,249.2862,69.2158,0,U,57213,999,1055,0,.14E-6,0
KUZGTU 1 (RS47S),2023-091AV,2026-05-11T22:02:32.063424,15.29016771,.00103562,97.5086,196.0502,217.0076,143.0450,0,U,57217,999,15883,.26590308E-3,.7426E-4,0
QIANKUN-1,2023-103B,2026-05-11T15:13:08.992704,16.07604660,.00283231,96.1629,179.0024,122.1157,238.2883,0,U,57422,999,16142,.76765179E-4,.64234E-3,.3481982E-5
FENGYUN 3F,2023-111A,2026-05-11T23:11:34.234080,14.19932514,.00012052,98.6860,202.6471,115.2656,244.8646,0,U,57490,999,14372,.22166013E-4,.4E-7,0
HJ-2F,2023-116A,2026-05-11T23:05:28.207392,15.21800760,.00094522,97.3859,137.8268,157.2912,202.8744,0,U,57519,999,15324,.21359283E-3,.4784E-4,0
XRISM,2023-137A,2026-05-11T16:35:38.159232,15.12155544,.00076701,31.0020,235.9473,315.6174,44.3850,0,U,57800,999,14733,.14329027E-3,.2631E-4,0
METEOR-M2 4,2024-039A,2026-05-11T22:58:25.550688,14.22425734,.00059233,98.6990,91.7157,276.6883,83.3620,0,U,59051,999,11411,.17795714E-4,-.4E-7,0
